CCSDS_OMM_VERS = 2.0
CREATION_DATE  = 
ORIGINATOR     = 

OBJECT_NAME    = STARLINK-36847
OBJECT_ID      = 2026-036G
CENTER_NAME    = EARTH
REF_FRAME      = TEME
TIME_SYSTEM    = UTC
MEAN_ELEMENT_THEORY = SGP/SGP4

EPOCH          = 2026-03-01T12:00:02.998944
MEAN_MOTION    = 15.90317756
ECCENTRICITY   = .0001968
INCLINATION    = 42.9959
RA_OF_ASC_NODE = 300.0307
ARG_OF_PERICENTER = 265.0004
MEAN_ANOMALY   = 57.3190

EPHEMERIS_TYPE = 0
CLASSIFICATION_TYPE = U
NORAD_CAT_ID   = 67910
ELEMENT_SET_NO = 999
REV_AT_EPOCH   = 233
BSTAR          = -.5351E-2
MEAN_MOTION_DOT = -.1469847E-1
MEAN_MOTION_DDOT = 0

CCSDS_OMM_VERS = 2.0
CREATION_DATE  = 
ORIGINATOR     = 

OBJECT_NAME    = STARLINK-36736
OBJECT_ID      = 2026-036H
CENTER_NAME    = EARTH
REF_FRAME      = TEME
TIME_SYSTEM    = UTC
MEAN_ELEMENT_THEORY = SGP/SGP4

EPOCH          = 2026-03-01T12:00:02.998944
MEAN_MOTION    = 15.90480020
ECCENTRICITY   = .0001867
INCLINATION    = 42.9955
RA_OF_ASC_NODE = 300.0236
ARG_OF_PERICENTER = 265.5196
MEAN_ANOMALY   = 59.5328

EPHEMERIS_TYPE = 0
CLASSIFICATION_TYPE = U
NORAD_CAT_ID   = 67911
ELEMENT_SET_NO = 999
REV_AT_EPOCH   = 233
BSTAR          = -.52854E-2
MEAN_MOTION_DOT = -.1464805E-1
MEAN_MOTION_DDOT = 0

CCSDS_OMM_VERS = 2.0
CREATION_DATE  = 
ORIGINATOR     = 

OBJECT_NAME    = STARLINK-36676
OBJECT_ID      = 2026-036J
CENTER_NAME    = EARTH
REF_FRAME      = TEME
TIME_SYSTEM    = UTC
MEAN_ELEMENT_THEORY = SGP/SGP4

EPOCH          = 2026-03-01T12:00:02.998944
MEAN_MOTION    = 15.90642472
ECCENTRICITY   = .000187
INCLINATION    = 42.9958
RA_OF_ASC_NODE = 300.0174
ARG_OF_PERICENTER = 267.7654
MEAN_ANOMALY   = 59.8588

EPHEMERIS_TYPE = 0
CLASSIFICATION_TYPE = U
NORAD_CAT_ID   = 67912
ELEMENT_SET_NO = 999
REV_AT_EPOCH   = 233
BSTAR          = -.51975E-2
MEAN_MOTION_DOT = -.1454304E-1
MEAN_MOTION_DDOT = 0

CCSDS_OMM_VERS = 2.0
CREATION_DATE  = 
ORIGINATOR     = 

OBJECT_NAME    = STARLINK-36690
OBJECT_ID      = 2026-036K
CENTER_NAME    = EARTH
REF_FRAME      = TEME
TIME_SYSTEM    = UTC
MEAN_ELEMENT_THEORY = SGP/SGP4

EPOCH          = 2026-03-01T12:00:02.998944
MEAN_MOTION    = 15.90799172
ECCENTRICITY   = .0001897
INCLINATION    = 42.9959
RA_OF_ASC_NODE = 300.0102
ARG_OF_PERICENTER = 266.3031
MEAN_ANOMALY   = 64.1568

EPHEMERIS_TYPE = 0
CLASSIFICATION_TYPE = U
NORAD_CAT_ID   = 67913
ELEMENT_SET_NO = 999
REV_AT_EPOCH   = 233
BSTAR          = -.51619E-2
MEAN_MOTION_DOT = -.1455947E-1
MEAN_MOTION_DDOT = 0

CCSDS_OMM_VERS = 2.0
CREATION_DATE  = 
ORIGINATOR     = 

OBJECT_NAME    = STARLINK-36724
OBJECT_ID      = 2026-036L
CENTER_NAME    = EARTH
REF_FRAME      = TEME
TIME_SYSTEM    = UTC
MEAN_ELEMENT_THEORY = SGP/SGP4

EPOCH          = 2026-03-01T12:00:02.998944
MEAN_MOTION    = 15.91117261
ECCENTRICITY   = .0001863
INCLINATION    = 42.9957
RA_OF_ASC_NODE = 299.9965
ARG_OF_PERICENTER = 263.3744
MEAN_ANOMALY   = 72.3880

EPHEMERIS_TYPE = 0
CLASSIFICATION_TYPE = U
NORAD_CAT_ID   = 67914
ELEMENT_SET_NO = 999
REV_AT_EPOCH   = 233
BSTAR          = -.49971E-2
MEAN_MOTION_DOT = -.1635218E-1
MEAN_MOTION_DDOT = .73738E-3

CCSDS_OMM_VERS = 2.0
CREATION_DATE  = 
ORIGINATOR     = 

OBJECT_NAME    = STARLINK-36723
OBJECT_ID      = 2026-036M
CENTER_NAME    = EARTH
REF_FRAME      = TEME
TIME_SYSTEM    = UTC
MEAN_ELEMENT_THEORY = SGP/SGP4

EPOCH          = 2026-03-01T12:00:02.998944
MEAN_MOTION    = 15.90947271
ECCENTRICITY   = .0001998
INCLINATION    = 42.9959
RA_OF_ASC_NODE = 300.0030
ARG_OF_PERICENTER = 265.5133
MEAN_ANOMALY   = 67.7786

EPHEMERIS_TYPE = 0
CLASSIFICATION_TYPE = U
NORAD_CAT_ID   = 67915
ELEMENT_SET_NO = 999
REV_AT_EPOCH   = 233
BSTAR          = -.50803E-2
MEAN_MOTION_DOT = -.1445726E-1
MEAN_MOTION_DDOT = 0

CCSDS_OMM_VERS = 2.0
CREATION_DATE  = 
ORIGINATOR     = 

OBJECT_NAME    = STARLINK-36721
OBJECT_ID      = 2026-036N
CENTER_NAME    = EARTH
REF_FRAME      = TEME
TIME_SYSTEM    = UTC
MEAN_ELEMENT_THEORY = SGP/SGP4

EPOCH          = 2026-03-01T12:00:02.998944
MEAN_MOTION    = 15.91262535
ECCENTRICITY   = .0001779
INCLINATION    = 42.9960
RA_OF_ASC_NODE = 299.9895
ARG_OF_PERICENTER = 269.7650
MEAN_ANOMALY   = 68.9362

EPHEMERIS_TYPE = 0
CLASSIFICATION_TYPE = U
NORAD_CAT_ID   = 67916
ELEMENT_SET_NO = 999
REV_AT_EPOCH   = 233
BSTAR          = -.50248E-2
MEAN_MOTION_DOT = -.1656361E-1
MEAN_MOTION_DDOT = .75609E-3

CCSDS_OMM_VERS = 2.0
CREATION_DATE  = 
ORIGINATOR     = 

OBJECT_NAME    = STARLINK-36722
OBJECT_ID      = 2026-036P
CENTER_NAME    = EARTH
REF_FRAME      = TEME
TIME_SYSTEM    = UTC
MEAN_ELEMENT_THEORY = SGP/SGP4

EPOCH          = 2026-03-01T12:00:02.998944
MEAN_MOTION    = 15.91415917
ECCENTRICITY   = .0002008
INCLINATION    = 42.9959
RA_OF_ASC_NODE = 299.9829
ARG_OF_PERICENTER = 264.6344
MEAN_ANOMALY   = 76.6568

EPHEMERIS_TYPE = 0
CLASSIFICATION_TYPE = U
NORAD_CAT_ID   = 67917
ELEMENT_SET_NO = 999
REV_AT_EPOCH   = 233
BSTAR          = -.49415E-2
MEAN_MOTION_DOT = -.1642107E-1
MEAN_MOTION_DDOT = .74524E-3

CCSDS_OMM_VERS = 2.0
CREATION_DATE  = 
ORIGINATOR     = 

OBJECT_NAME    = STARLINK-36341
OBJECT_ID      = 2026-036Q
CENTER_NAME    = EARTH
REF_FRAME      = TEME
TIME_SYSTEM    = UTC
MEAN_ELEMENT_THEORY = SGP/SGP4

EPOCH          = 2026-03-01T12:00:02.998944
MEAN_MOTION    = 15.91719061
ECCENTRICITY   = .0001913
INCLINATION    = 42.9960
RA_OF_ASC_NODE = 299.9696
ARG_OF_PERICENTER = 263.6172
MEAN_ANOMALY   = 82.8956

EPHEMERIS_TYPE = 0
CLASSIFICATION_TYPE = U
NORAD_CAT_ID   = 67918
ELEMENT_SET_NO = 999
REV_AT_EPOCH   = 233
BSTAR          = -.48195E-2
MEAN_MOTION_DOT = -.1627043E-1
MEAN_MOTION_DDOT = .73485E-3

CCSDS_OMM_VERS = 2.0
CREATION_DATE  = 
ORIGINATOR     = 

OBJECT_NAME    = STARLINK-36663
OBJECT_ID      = 2026-036R
CENTER_NAME    = EARTH
REF_FRAME      = TEME
TIME_SYSTEM    = UTC
MEAN_ELEMENT_THEORY = SGP/SGP4

EPOCH          = 2026-03-01T12:00:02.998944
MEAN_MOTION    = 15.91567322
ECCENTRICITY   = .0001953
INCLINATION    = 42.9962
RA_OF_ASC_NODE = 299.9764
ARG_OF_PERICENTER = 265.3363
MEAN_ANOMALY   = 78.5709

EPHEMERIS_TYPE = 0
CLASSIFICATION_TYPE = U
NORAD_CAT_ID   = 67919
ELEMENT_SET_NO = 999
REV_AT_EPOCH   = 233
BSTAR          = -.48762E-2
MEAN_MOTION_DOT = -.163322E-1
MEAN_MOTION_DDOT = .73891E-3

CCSDS_OMM_VERS = 2.0
CREATION_DATE  = 
ORIGINATOR     = 

OBJECT_NAME    = STARLINK-36375
OBJECT_ID      = 2026-036S
CENTER_NAME    = EARTH
REF_FRAME      = TEME
TIME_SYSTEM    = UTC
MEAN_ELEMENT_THEORY = SGP/SGP4

EPOCH          = 2026-03-01T12:00:02.998944
MEAN_MOTION    = 15.91864545
ECCENTRICITY   = .0001934
INCLINATION    = 42.9961
RA_OF_ASC_NODE = 299.9629
ARG_OF_PERICENTER = 268.5145
MEAN_ANOMALY   = 80.7184

EPHEMERIS_TYPE = 0
CLASSIFICATION_TYPE = U
NORAD_CAT_ID   = 67920
ELEMENT_SET_NO = 999
REV_AT_EPOCH   = 233
BSTAR          = -.47559E-2
MEAN_MOTION_DOT = -.1617873E-1
MEAN_MOTION_DDOT = .72827E-3

CCSDS_OMM_VERS = 2.0
CREATION_DATE  = 
ORIGINATOR     = 

OBJECT_NAME    = STARLINK-36405
OBJECT_ID      = 2026-036T
CENTER_NAME    = EARTH
REF_FRAME      = TEME
TIME_SYSTEM    = UTC
MEAN_ELEMENT_THEORY = SGP/SGP4

EPOCH          = 2026-03-01T12:00:02.998944
MEAN_MOTION    = 15.92028606
ECCENTRICITY   = .0001887
INCLINATION    = 42.9961
RA_OF_ASC_NODE = 299.9569
ARG_OF_PERICENTER = 266.2383
MEAN_ANOMALY   = 85.4275

EPHEMERIS_TYPE = 0
CLASSIFICATION_TYPE = U
NORAD_CAT_ID   = 67921
ELEMENT_SET_NO = 999
REV_AT_EPOCH   = 233
BSTAR          = -.47482E-2
MEAN_MOTION_DOT = -.1628933E-1
MEAN_MOTION_DDOT = .73863E-3

CCSDS_OMM_VERS = 2.0
CREATION_DATE  = 
ORIGINATOR     = 

OBJECT_NAME    = STARLINK-36383
OBJECT_ID      = 2026-036U
CENTER_NAME    = EARTH
REF_FRAME      = TEME
TIME_SYSTEM    = UTC
MEAN_ELEMENT_THEORY = SGP/SGP4

EPOCH          = 2026-03-01T12:00:02.998944
MEAN_MOTION    = 15.92196854
ECCENTRICITY   = .0002139
INCLINATION    = 42.9962
RA_OF_ASC_NODE = 299.9499
ARG_OF_PERICENTER = 269.6184
MEAN_ANOMALY   = 84.8187

EPHEMERIS_TYPE = 0
CLASSIFICATION_TYPE = U
NORAD_CAT_ID   = 67922
ELEMENT_SET_NO = 999
REV_AT_EPOCH   = 233
BSTAR          = -.49901E-2
MEAN_MOTION_DOT = -.1725812E-1
MEAN_MOTION_DDOT = .82303E-3

CCSDS_OMM_VERS = 2.0
CREATION_DATE  = 
ORIGINATOR     = 

OBJECT_NAME    = STARLINK-36406
OBJECT_ID      = 2026-036V
CENTER_NAME    = EARTH
REF_FRAME      = TEME
TIME_SYSTEM    = UTC
MEAN_ELEMENT_THEORY = SGP/SGP4

EPOCH          = 2026-03-01T12:00:02.998944
MEAN_MOTION    = 15.92325614
ECCENTRICITY   = .0001858
INCLINATION    = 42.9962
RA_OF_ASC_NODE = 299.9437
ARG_OF_PERICENTER = 268.8669
MEAN_ANOMALY   = 88.0402

EPHEMERIS_TYPE = 0
CLASSIFICATION_TYPE = U
NORAD_CAT_ID   = 67923
ELEMENT_SET_NO = 999
REV_AT_EPOCH   = 233
BSTAR          = -.468E-2
MEAN_MOTION_DOT = -.1630565E-1
MEAN_MOTION_DDOT = .74214E-3

CCSDS_OMM_VERS = 2.0
CREATION_DATE  = 
ORIGINATOR     = 

OBJECT_NAME    = STARLINK-36714
OBJECT_ID      = 2026-036W
CENTER_NAME    = EARTH
REF_FRAME      = TEME
TIME_SYSTEM    = UTC
MEAN_ELEMENT_THEORY = SGP/SGP4

EPOCH          = 2026-03-01T12:00:02.998944
MEAN_MOTION    = 15.92471321
ECCENTRICITY   = .0001914
INCLINATION    = 42.9962
RA_OF_ASC_NODE = 299.9373
ARG_OF_PERICENTER = 269.8333
MEAN_ANOMALY   = 89.5468

EPHEMERIS_TYPE = 0
CLASSIFICATION_TYPE = U
NORAD_CAT_ID   = 67924
ELEMENT_SET_NO = 999
REV_AT_EPOCH   = 233
BSTAR          = -.46089E-2
MEAN_MOTION_DOT = -.1618249E-1
MEAN_MOTION_DDOT = .73289E-3

